{
  "type": "FeatureCollection",
  "features": [
    {
      "type": "Feature",
      "properties": {
        "norad_id": 66962,
        "name": "STARLINK-35874",
        "group": "last-30-days",
        "lat": -42.793208088446,
        "lon": 27.43174450535019,
        "alt_km": 324.53074189416657,
        "timestamp": "2025-12-19T18:58:40.329967+00:00",
        "meta_object_name": "STARLINK-35874",
        "meta_object_id": "2025-288D",
        "meta_epoch": "2025-12-19T00:00:02.000160",
        "meta_mean_motion": 15.84921869,
        "meta_eccentricity": 0.00018728,
        "meta_inclination": 43.0012,
        "meta_ra_of_asc_node": 128.8404,
        "meta_arg_of_pericenter": 279.3952,
        "meta_mean_anomaly": 151.7655,
        "meta_ephemeris_type": 0,
        "meta_classification_type": "U",
        "meta_norad_cat_id": 66962,
        "meta_element_set_no": 999,
        "meta_rev_at_epoch": 283,
        "meta_bstar": -0.006005805,
        "meta_mean_motion_dot": -0.01282484,
        "meta_mean_motion_ddot": 0,
        "tle_line1": "1 66962U 25288D   25353.00002315 -.01282484  00000+0 -60058-2 0  9994",
        "tle_line2": "2 66962  43.0012 128.8404 0001872 279.3952 151.7655 15.84921869  2839"
      },
      "geometry": {
        "type": "Point",
        "coordinates": [
          27.43174450535019,
          -42.793208088446
        ]
      }
    },
    {
      "type": "Feature",
      "properties": {
        "norad_id": 66963,
        "name": "STARLINK-36133",
        "group": "last-30-days",
        "lat": -42.92052478821454,
        "lon": 30.273291899213213,
        "alt_km": 324.6047846928868,
        "timestamp": "2025-12-19T18:58:40.329977+00:00",
        "meta_object_name": "STARLINK-36133",
        "meta_object_id": "2025-288E",
        "meta_epoch": "2025-12-19T00:00:02.000160",
        "meta_mean_motion": 15.84951248,
        "meta_eccentricity": 0.00017866,
        "meta_inclination": 43.0012,
        "meta_ra_of_asc_node": 128.8353,
        "meta_arg_of_pericenter": 279.2681,
        "meta_mean_anomaly": 153.9657,
        "meta_ephemeris_type": 0,
        "meta_classification_type": "U",
        "meta_norad_cat_id": 66963,
        "meta_element_set_no": 999,
        "meta_rev_at_epoch": 283,
        "meta_bstar": -0.0061239178,
        "meta_mean_motion_dot": -0.01306262,
        "meta_mean_motion_ddot": 0,
        "tle_line1": "1 66963U 25288E   25353.00002315 -.01306262  00000+0 -61239-2 0  9998",
        "tle_line2": "2 66963  43.0012 128.8353 0001786 279.2681 153.9657 15.84951248  2835"
      },
      "geometry": {
        "type": "Point",
        "coordinates": [
          30.273291899213213,
          -42.92052478821454
        ]
      }
    },
    {
      "type": "Feature",
      "properties": {
        "norad_id": 66964,
        "name": "STARLINK-36104",
        "group": "last-30-days",
        "lat": -42.97782565797702,
        "lon": 33.20156825402259,
        "alt_km": 324.62243859090177,
        "timestamp": "2025-12-19T18:58:40.329989+00:00",
        "meta_object_name": "STARLINK-36104",
        "meta_object_id": "2025-288F",
        "meta_epoch": "2025-12-19T00:00:02.000160",
        "meta_mean_motion": 15.84976827,
        "meta_eccentricity": 0.00018169,
        "meta_inclination": 43.0014,
        "meta_ra_of_asc_node": 128.8298,
        "meta_arg_of_pericenter": 280.3292,
        "meta_mean_anomaly": 155.0471,
        "meta_ephemeris_type": 0,
        "meta_classification_type": "U",
        "meta_norad_cat_id": 66964,
        "meta_element_set_no": 999,
        "meta_rev_at_epoch": 283,
        "meta_bstar": -0.0062425229,
        "meta_mean_motion_dot": -0.01329933,
        "meta_mean_motion_ddot": 0,
        "tle_line1": "1 66964U 25288F   25353.00002315 -.01329933  00000+0 -62425-2 0  9997",
        "tle_line2": "2 66964  43.0014 128.8298 0001816 280.3292 155.0471 15.84976827  2838"
      },
      "geometry": {
        "type": "Point",
        "coordinates": [
          33.20156825402259,
          -42.97782565797702
        ]
      }
    },
    {
      "type": "Feature",
      "properties": {
        "norad_id": 66965,
        "name": "STARLINK-36067",
        "group": "last-30-days",
        "lat": -42.959973592933096,
        "lon": 36.12919792855004,
        "alt_km": 324.69637253089877,
        "timestamp": "2025-12-19T18:58:40.330000+00:00",
        "meta_object_name": "STARLINK-36067",
        "meta_object_id": "2025-288G",
        "meta_epoch": "2025-12-19T00:00:02.000160",
        "meta_mean_motion": 15.84996207,
        "meta_eccentricity": 0.00017426,
        "meta_inclination": 43.0014,
        "meta_ra_of_asc_node": 128.8243,
        "meta_arg_of_pericenter": 280.6954,
        "meta_mean_anomaly": 156.8259,
        "meta_ephemeris_type": 0,
        "meta_classification_type": "U",
        "meta_norad_cat_id": 66965,
        "meta_element_set_no": 999,
        "meta_rev_at_epoch": 283,
        "meta_bstar": -0.0063382834,
        "meta_mean_motion_dot": -0.01348846,
        "meta_mean_motion_ddot": 0,
        "tle_line1": "1 66965U 25288G   25353.00002315 -.01348846  00000+0 -63383-2 0  9996",
        "tle_line2": "2 66965  43.0014 128.8243 0001742 280.6954 156.8259 15.84996207  2832"
      },
      "geometry": {
        "type": "Point",
        "coordinates": [
          36.12919792855004,
          -42.959973592933096
        ]
      }
    },
    {
      "type": "Feature",
      "properties": {
        "norad_id": 66966,
        "name": "STARLINK-36139",
        "group": "last-30-days",
        "lat": -42.84318199283416,
        "lon": 39.56576166256179,
        "alt_km": 324.79639216032865,
        "timestamp": "2025-12-19T18:58:40.330010+00:00",
        "meta_object_name": "STARLINK-36139",
        "meta_object_id": "2025-288H",
        "meta_epoch": "2025-12-19T00:00:02.000160",
        "meta_mean_motion": 15.84996151,
        "meta_eccentricity": 0.00017231,
        "meta_inclination": 43.0013,
        "meta_ra_of_asc_node": 128.8177,
        "meta_arg_of_pericenter": 280.8021,
        "meta_mean_anomaly": 159.3069,
        "meta_ephemeris_type": 0,
        "meta_classification_type": "U",
        "meta_norad_cat_id": 66966,
        "meta_element_set_no": 999,
        "meta_rev_at_epoch": 283,
        "meta_bstar": -0.006456443,
        "meta_mean_motion_dot": -0.01370764,
        "meta_mean_motion_ddot": 0,
        "tle_line1": "1 66966U 25288H   25353.00002315 -.01370764  00000+0 -64564-2 0  9993",
        "tle_line2": "2 66966  43.0013 128.8177 0001723 280.8021 159.3069 15.84996151  2839"
      },
      "geometry": {
        "type": "Point",
        "coordinates": [
          39.56576166256179,
          -42.84318199283416
        ]
      }
    },
    {
      "type": "Feature",
      "properties": {
        "norad_id": 66967,
        "name": "STARLINK-36136",
        "group": "last-30-days",
        "lat": -42.6644058057401,
        "lon": 42.45828568934431,
        "alt_km": 324.76214149069074,
        "timestamp": "2025-12-19T18:58:40.330020+00:00",
        "meta_object_name": "STARLINK-36136",
        "meta_object_id": "2025-288J",
        "meta_epoch": "2025-12-19T00:00:02.000160",
        "meta_mean_motion": 15.85011175,
        "meta_eccentricity": 0.00017311,
        "meta_inclination": 43.0014,
        "meta_ra_of_asc_node": 128.8123,
        "meta_arg_of_pericenter": 274.5565,
        "meta_mean_anomaly": 167.6755,
        "meta_ephemeris_type": 0,
        "meta_classification_type": "U",
        "meta_norad_cat_id": 66967,
        "meta_element_set_no": 999,
        "meta_rev_at_epoch": 283,
        "meta_bstar": -0.0065141174,
        "meta_mean_motion_dot": -0.01382319,
        "meta_mean_motion_ddot": 0,
        "tle_line1": "1 66967U 25288J   25353.00002315 -.01382319  00000+0 -65141-2 0  9995",
        "tle_line2": "2 66967  43.0014 128.8123 0001731 274.5565 167.6755 15.85011175  2833"
      },
      "geometry": {
        "type": "Point",
        "coordinates": [
          42.45828568934431,
          -42.6644058057401
        ]
      }
    },
    {
      "type": "Feature",
      "properties": {
        "norad_id": 66968,
        "name": "STARLINK-36152",
        "group": "last-30-days",
        "lat": -42.34789250872599,
        "lon": 45.961516156443885,
        "alt_km": 324.9505371666228,
        "timestamp": "2025-12-19T18:58:40.330031+00:00",
        "meta_object_name": "STARLINK-36152",
        "meta_object_id": "2025-288K",
        "meta_epoch": "2025-12-19T00:00:02.000160",
        "meta_mean_motion": 15.84995045,
        "meta_eccentricity": 0.00015994,
        "meta_inclination": 43.0015,
        "meta_ra_of_asc_node": 128.8054,
        "meta_arg_of_pericenter": 284.1867,
        "meta_mean_anomaly": 160.7243,
        "meta_ephemeris_type": 0,
        "meta_classification_type": "U",
        "meta_norad_cat_id": 66968,
        "meta_element_set_no": 999,
        "meta_rev_at_epoch": 283,
        "meta_bstar": -0.0065549097,
        "meta_mean_motion_dot": -0.01388793,
        "meta_mean_motion_ddot": 0,
        "tle_line1": "1 66968U 25288K   25353.00002315 -.01388793  00000+0 -65549-2 0  9990",
        "tle_line2": "2 66968  43.0015 128.8054 0001599 284.1867 160.7243 15.84995045  2834"
      },
      "geometry": {
        "type": "Point",
        "coordinates": [
          45.961516156443885,
          -42.34789250872599
        ]
      }
    }
  ]
}